{"type": "FeatureCollection", "features": [ {"type": "Feature", "properties": {"norad_id": 35135, "name": "FENGYUN 1C DEB", "group": "fengyun-1c-debris", "lat": 69.98089539522127, "lon": -22.437772834802544, "alt_km": 866.4993486002313, "timestamp": "2025-12-19T08:58:49.625376+00:00", "meta": {"OBJECT_NAME": "FENGYUN 1C DEB", "OBJECT_ID": "1999-025DLP", "EPOCH": "2025-12-16T18:10:55.660224", "MEAN_MOTION": 14.22547917, "ECCENTRICITY": 0.00807653, "INCLINATION": 98.5647, "RA_OF_ASC_NODE": 359.4515, "ARG_OF_PERICENTER": 272.6039, "MEAN_ANOMALY": 86.5896, "EPHEMERIS_TYPE": 0, "CLASSIFICATION_TYPE": "U", "NORAD_CAT_ID": 35135, "ELEMENT_SET_NO": 999, "REV_AT_EPOCH": 87881, "BSTAR": 0.00044907129, "MEAN_MOTION_DOT": 9.93e-06, "MEAN_MOTION_DDOT": 0}, "tle": {"line1": "1 35135U 99025DLP 25350.75758866  .00000993  00000+0  44907-3 0  9996", "line2": "2 35135  98.5647 359.4515 0080765 272.6039  86.5896 14.22547917878811"}}, "geometry": {"type": "Point", "coordinates": [-22.437772834802544, 69.98089539522127]}}, {"type": "Feature", "properties": {"norad_id": 35139, "name": "FENGYUN 1C DEB", "group": "fengyun-1c-debris", "lat": 49.24671973797383, "lon": -171.49646048240425, "alt_km": 858.5659044071708, "timestamp": "2025-12-19T08:58:49.625386+00:00", "meta": {"OBJECT_NAME": "FENGYUN 1C DEB", "OBJECT_ID": "1999-025DLT", "EPOCH": "2025-12-17T05:40:19.572096", "MEAN_MOTION": 14.2110105, "ECCENTRICITY": 0.0067913, "INCLINATION": 98.584, "RA_OF_ASC_NODE": 356.3312, "ARG_OF_PERICENTER": 284.2558, "MEAN_ANOMALY": 75.1083, "EPHEMERIS_TYPE": 0, "CLASSIFICATION_TYPE": "U", "NORAD_CAT_ID": 35139, "ELEMENT_SET_NO": 999, "REV_AT_EPOCH": 64217, "BSTAR": 0.0003366611, "MEAN_MOTION_DOT": 7.05e-06, "MEAN_MOTION_DDOT": 0}, "tle": {"line1": "1 35139U 99025DLT 25351.23633764  .00000705  00000+0  33666-3 0  9994", "line2": "2 35139  98.5840 356.3312 0067913 284.2558  75.1083 14.21101050642179"}}, "geometry": {"type": "Point", "coordinates": [-171.49646048240425, 49.24671973797383]}}, {"type": "Feature", "properties": {"norad_id": 35140, "name": "FENGYUN 1C DEB", "group": "fengyun-1c-debris", "lat": -40.0509245938898, "lon": 147.29692867088852, "alt_km": 809.4929701707033, "timestamp": "2025-12-19T08:58:49.625396+00:00", "meta": {"OBJECT_NAME": "FENGYUN 1C DEB", "OBJECT_ID": "1999-025DLU", "EPOCH": "2025-12-18T04:53:13.752960", "MEAN_MOTION": 14.21355497, "ECCENTRICITY": 0.02903724, "INCLINATION": 98.445, "RA_OF_ASC_NODE": 333.3496, "ARG_OF_PERICENTER": 310.6842, "MEAN_ANOMALY": 46.9429, "EPHEMERIS_TYPE": 0, "CLASSIFICATION_TYPE": "U", "NORAD_CAT_ID": 35140, "ELEMENT_SET_NO": 999, "REV_AT_EPOCH": 87356, "BSTAR": 0.00018673112, "MEAN_MOTION_DOT": 5.73e-06, "MEAN_MOTION_DDOT": 0}, "tle": {"line1": "1 35140U 99025DLU 25352.20363140  .00000573  00000+0  18673-3 0  9996", "line2": "2 35140  98.4450 333.3496 0290372 310.6842  46.9429 14.21355497873567"}}, "geometry": {"type": "Point", "coordinates": [147.29692867088852, -40.0509245938898]}}, {"type": "Feature", "properties": {"norad_id": 35142, "name": "FENGYUN 1C DEB", "group": "fengyun-1c-debris", "lat": 38.488673481329215, "lon": 172.6280570947601, "alt_km": 878.3190597387656, "timestamp": "2025-12-19T08:58:49.625406+00:00", "meta": {"OBJECT_NAME": "FENGYUN 1C DEB", "OBJECT_ID": "1999-025DLW", "EPOCH": "2025-12-16T06:06:10.234368", "MEAN_MOTION": 13.90508934, "ECCENTRICITY": 0.01077729, "INCLINATION": 99.0452, "RA_OF_ASC_NODE": 342.3158, "ARG_OF_PERICENTER": 204.4667, "MEAN_ANOMALY": 168.1585, "EPHEMERIS_TYPE": 0, "CLASSIFICATION_TYPE": "U", "NORAD_CAT_ID": 35142, "ELEMENT_SET_NO": 999, "REV_AT_EPOCH": 85738, "BSTAR": 0.00020062048, "MEAN_MOTION_DOT": 2.18e-06, "MEAN_MOTION_DDOT": 0}, "tle": {"line1": "1 35142U 99025DLW 25350.25428512  .00000218  00000+0  20062-3 0  9997", "line2": "2 35142  99.0452 342.3158 0107772 204.4667 168.1585 13.90508934857382"}}, "geometry": {"type": "Point", "coordinates": [172.6280570947601, 38.488673481329215]}}, {"type": "Feature", "properties": {"norad_id": 35144, "name": "FENGYUN 1C DEB", "group": "fengyun-1c-debris", "lat": -61.128395597319354, "lon": -87.08216400157555, "alt_km": 705.2447529201763, "timestamp": "2025-12-19T08:58:49.625416+00:00", "meta": {"OBJECT_NAME": "FENGYUN 1C DEB", "OBJECT_ID": "1999-025DLY", "EPOCH": "2025-12-15T03:29:25.584864", "MEAN_MOTION": 14.59259684, "ECCENTRICITY": 0.00266192, "INCLINATION": 98.6997, "RA_OF_ASC_NODE": 104.611, "ARG_OF_PERICENTER": 353.8009, "MEAN_ANOMALY": 6.2856, "EPHEMERIS_TYPE": 0, "CLASSIFICATION_TYPE": "U", "NORAD_CAT_ID": 35144, "ELEMENT_SET_NO": 999, "REV_AT_EPOCH": 65248, "BSTAR": 0.0015089834, "MEAN_MOTION_DOT": 7.114e-05, "MEAN_MOTION_DDOT": 0}, "tle": {"line1": "1 35144U 99025DLY 25349.14543501  .00007114  00000+0  15090-2 0  9997", "line2": "2 35144  98.6997 104.6110 0026619 353.8009   6.2856 14.59259684652487"}}, "geometry": {"type": "Point", "coordinates": [-87.08216400157555, -61.128395597319354]}}, {"type": "Feature", "properties": {"norad_id": 35147, "name": "FENGYUN 1C DEB", "group": "fengyun-1c-debris", "lat": 71.15169424967804, "lon": 38.4625543567395, "alt_km": 644.9056943127207, "timestamp": "2025-12-19T08:58:49.625426+00:00", "meta": {"OBJECT_NAME": "FENGYUN 1C DEB", "OBJECT_ID": "1999-025DMB", "EPOCH": "2025-12-18T11:28:26.530176", "MEAN_MOTION": 14.74466658, "ECCENTRICITY": 0.00274951, "INCLINATION": 99.4866, "RA_OF_ASC_NODE": 66.7444, "ARG_OF_PERICENTER": 181.7637, "MEAN_ANOMALY": 178.3474, "EPHEMERIS_TYPE": 0, "CLASSIFICATION_TYPE": "U", "NORAD_CAT_ID": 35147, "ELEMENT_SET_NO": 999, "REV_AT_EPOCH": 74389, "BSTAR": 0.0021540097, "MEAN_MOTION_DOT": 0.0001436, "MEAN_MOTION_DDOT": 0}, "tle": {"line1": "1 35147U 99025DMB 25352.47808484  .00014360  00000+0  21540-2 0  9992", "line2": "2 35147  99.4866  66.7444 0027495 181.7637 178.3474 14.74466658743891"}}, "geometry": {"type": "Point", "coordinates": [38.4625543567395, 71.15169424967804]}}, {"type": "Feature", "properties": {"norad_id": 35152, "name": "FENGYUN 1C DEB", "group": "fengyun-1c-debris", "lat": -11.465304383767968, "lon": 178.28728379947128, "alt_km": 839.6604903111238, "timestamp": "2025-12-19T08:58:49.625436+00:00", "meta": {"OBJECT_NAME": "FENGYUN 1C DEB", "OBJECT_ID": "1999-025DMG", "EPOCH": "2025-12-16T18:13:57.032832", "MEAN_MOTION": 13.7643783, "ECCENTRICITY": 0.01945259, "INCLINATION": 99.8194, "RA_OF_ASC_NODE": 173.5777, "ARG_OF_PERICENTER": 5.0809, "MEAN_ANOMALY": 355.2255, "EPHEMERIS_TYPE": 0, "CLASSIFICATION_TYPE": "U", "NORAD_CAT_ID": 35152, "ELEMENT_SET_NO": 999, "REV_AT_EPOCH": 62248, "BSTAR": 0.00057948786, "MEAN_MOTION_DOT": 6.03e-06, "MEAN_MOTION_DDOT": 0}, "tle": {"line1": "1 35152U 99025DMG 25350.75968788  .00000603  00000+0  57949-3 0  9999", "line2": "2 35152  99.8194 173.5777 0194525   5.0809 355.2255 13.76437830622484"}}, "geometry": {"type": "Point", "coordinates": [178.28728379947128, -11.465304383767968]}}, {"type": "Feature", "properties": {"norad_id": 35153, "name": "FENGYUN 1C DEB", "group": "fengyun-1c-debris", "lat": 6.775067697803186, "lon": -115.24332037798531, "alt_km": 581.7793917583549, "timestamp": "2025-12-19T08:58:49.625446+00:00", "meta": {"OBJECT_NAME": "FENGYUN 1C DEB", "OBJECT_ID": "1999-025DMH", "EPOCH": "2025-12-18T10:08:17.005920", "MEAN_MOTION": 14.73766835, "ECCENTRICITY": 0.01710623, "INCLINATION": 98.9028, "RA_OF_ASC_NODE": 244.7793, "ARG_OF_PERICENTER": 65.5393, "MEAN_ANOMALY": 296.3548, "EPHEMERIS_TYPE": 0, "CLASSIFICATION_TYPE": "U", "NORAD_CAT_ID": 35153, "ELEMENT_SET_NO": 999, "REV_AT_EPOCH": 97301, "BSTAR": 0.00030983329, "MEAN_MOTION_DOT": 2.49e-05, "MEAN_MOTION_DDOT": 0}, "tle": {"line1": "1 35153U 99025DMH 25352.42241905  .00002490  00000+0  30983-3 0  9996", "line2": "2 35153  98.9028 244.7793 0171062  65.5393 296.3548 14.73766835973016"}}, "geometry": {"type": "Point", "coordinates": [-115.24332037798531, 6.775067697803186]}}, {"type": "Feature", "properties": {"norad_id": 35154, "name": "FENGYUN 1C DEB", "group": "fengyun-1c-debris", "lat": 80.1910919125918, "lon": 41.44323427401992, "alt_km": 762.0704226954531, "timestamp": "2025-12-19T08:58:49.625456+00:00", "meta": {"OBJECT_NAME": "FENGYUN 1C DEB", "OBJECT_ID": "1999-025DMJ", "EPOCH": "2025-12-18T03:48:47.568096", "MEAN_MOTION": 14.18905648, "ECCENTRICITY": 0.01791641, "INCLINATION": 99.422, "RA_OF_ASC_NODE": 113.9802, "ARG_OF_PERICENTER": 27.2396, "MEAN_ANOMALY": 333.8038, "EPHEMERIS_TYPE": 0, "CLASSIFICATION_TYPE": "U", "NORAD_CAT_ID": 35154, "ELEMENT_SET_NO": 999, "REV_AT_EPOCH": 64654, "BSTAR": 0.00023097044, "MEAN_MOTION_DOT": 5.14e-06, "MEAN_MOTION_DDOT": 0}, "tle": {"line1": "1 35154U 99025DMJ 25352.15888389  .00000514  00000+0  23097-3 0  9993", "line2": "2 35154  99.4220 113.9802 0179164  27.2396 333.8038 14.18905648646546"}}, "geometry": {"type": "Point", "coordinates": [41.44323427401992, 80.1910919125918]}}, {"type": "Feature", "properties": {"norad_id": 35155, "name": "FENGYUN 1C DEB", "group": "fengyun-1c-debris", "lat": -34.67344763674953, "lon": 178.83729273628046, "alt_km": 851.6950315641725, "timestamp": "2025-12-19T08:58:49.625465+00:00", "meta": {"OBJECT_NAME": "FENGYUN 1C DEB", "OBJECT_ID": "1999-025DMK", "EPOCH": "2025-12-13T11:32:29.448096", "MEAN_MOTION": 14.19285709, "ECCENTRICITY": 0.00260991, "INCLINATION": 98.5012, "RA_OF_ASC_NODE": 359.121, "ARG_OF_PERICENTER": 70.7543, "MEAN_ANOMALY": 289.6454, "EPHEMERIS_TYPE": 0, "CLASSIFICATION_TYPE": "U", "NORAD_CAT_ID": 35155, "ELEMENT_SET_NO": 999, "REV_AT_EPOCH": 72724, "BSTAR": 0.00090034288, "MEAN_MOTION_DOT": 1.854e-05, "MEAN_MOTION_DDOT": 0}, "tle": {"line1": "1 35155U 99025DMK 25347.48089639  .00001854  00000+0  90034-3 0  9998", "line2": "2 35155  98.5012 359.1210 0026099  70.7543 289.6454 14.19285709727245"}}, "geometry": {"type": "Point", "coordinates": [178.83729273628046, -34.67344763674953]}}]}